[{"OBJECT_NAME":"STARLINK-31305","OBJECT_ID":"2024-049B","EPOCH":"2026-03-09T06:23:06.919584","MEAN_MOTION":15.27570268,"ECCENTRICITY":0.00012979,"INCLINATION":43.0033,"RA_OF_ASC_NODE":145.7122,"ARG_OF_PERICENTER":267.3555,"MEAN_ANOMALY":92.7148,"EPHEMERIS_TYPE":0,"CLASSIFICATION_TYPE":"U","NORAD_CAT_ID":59232,"ELEMENT_SET_NO":999,"REV_AT_EPOCH":11232,"BSTAR":-0.00011838441,"MEAN_MOTION_DOT":-3.517e-5,"MEAN_MOTION_DDOT":0},{"OBJECT_NAME":"FLOCK 4G-23","OBJECT_ID":"2025-009AQ","EPOCH":"2026-03-09T17:11:57.175872","MEAN_MOTION":15.27262579,"ECCENTRICITY":9.048e-5,"INCLINATION":97.3979,"RA_OF_ASC_NODE":150.9478,"ARG_OF_PERICENTER":7.2707,"MEAN_ANOMALY":352.8545,"EPHEMERIS_TYPE":0,"CLASSIFICATION_TYPE":"U","NORAD_CAT_ID":62647,"ELEMENT_SET_NO":999,"REV_AT_EPOCH":6372,"BSTAR":0.00046815788,"MEAN_MOTION_DOT":0.0001244,"MEAN_MOTION_DDOT":0}]
